ONEWEB-0509             
1 54127U 22138Q   25359.92638968  .00000057  00000+0  10933-3 0  9990
2 54127  87.9219 339.4241 0001859  81.3571 278.7772 13.19725404153950
ONEWEB-0510             
1 54128U 22138R   25360.25450048  .00000231  00000+0  53560-3 0  9997
2 54128  87.9217 308.9261 0001695  96.0126 264.1201 13.20770236156458
ONEWEB-0511             
1 54129U 22138S   25360.22650093  .00000065  00000+0  13072-3 0  9996
2 54129  87.9220 339.3680 0002080  88.2608 271.8763 13.19725366154024
ONEWEB-0512             
1 54130U 22138T   25359.91532720  .00000099  00000+0  21458-3 0  9992
2 54130  87.9210 339.4524 0002081  77.8493 282.2873 13.19725737153951
ONEWEB-0513             
1 54131U 22138U   25359.91574514  .00000063  00000+0  12469-3 0  9993
2 54131  87.9221 339.4124 0002649  77.3649 282.7780 13.20260550153858
ONEWEB-0514             
1 54132U 22138V   25359.93112799 -.00000031  00000+0 -10936-3 0  9993
2 54132  87.9214 339.4351 0001787  88.9128 271.2209 13.19724601153977
ONEWEB-0515             
1 54133U 22138W   25360.24187574  .00000006  00000+0 -16985-4 0  9995
2 54133  87.9226 308.9156 0000996  93.1979 266.9268 13.20771416156470
ONEWEB-0516             
1 54134U 22138X   25360.20911655  .00000215  00000+0  50580-3 0  9996
2 54134  87.9202 339.3984 0001795  80.0307 280.1028 13.19726526154010
ONEWEB-0517             
1 54135U 22138Y   25359.88531825  .00000094  00000+0  20370-3 0  9995
2 54135  87.9220 339.4448 0002055  90.5380 269.5988 13.19725290153971
ONEWEB-0518             
1 54136U 22138Z   25360.20754406  .00000175  00000+0  40592-3 0  9994
2 54136  87.9202 339.4002 0001936  79.4084 280.7267 13.19725814154015
ONEWEB-0519             
1 54137U 22138AA  25359.92954240  .00000097  00000+0  20921-3 0  9997
2 54137  87.9216 339.4264 0002016  88.1917 271.9446 13.19727534153980
ONEWEB-0520             
1 54138U 22138AB  25359.88847804  .00000109  00000+0  24070-3 0  9993
2 54138  87.9219 339.4395 0001912  76.7132 283.4214 13.19726091153961
ONEWEB-0521             
1 54139U 22138AC  25360.22491662  .00000073  00000+0  15031-3 0  9998
2 54139  87.9215 339.3569 0001939  90.4818 269.6537 13.19725745153951
ONEWEB-0522             
1 54140U 22138AD  25359.97693503  .00000054  00000+0  10237-3 0  9990
2 54140  87.9205 339.4098 0001858  84.0111 276.1233 13.19724734153969
ONEWEB-0523             
1 54141U 22138AE  25360.22924197  .00000011  00000+0 -53833-5 0  9992
2 54141  87.9215 308.9348 0001551 106.4410 253.6894 13.20770341156470
ONEWEB-0524             
1 54142U 22138AF  25359.91516922 -.00000012  00000+0 -61589-4 0  9998
2 54142  87.9213 308.9992 0000864  73.5428 286.5801 13.20771525156437
ONEWEB-0525             
1 54143U 22138AG  25360.22333691  .00000031  00000+0  46064-4 0  9995
2 54143  87.9215 339.3782 0001961  77.0111 283.1240 13.19725973154018
