[{"OBJECT_NAME":"ONEWEB-0509","OBJECT_ID":"2022-138Q","EPOCH":"2025-12-25T22:14:00.068352","MEAN_MOTION":13.19725404,"ECCENTRICITY":0.0001859,"INCLINATION":87.9219,"RA_OF_ASC_NODE":339.4241,"ARG_OF_PERICENTER":81.3571,"MEAN_ANOMALY":278.7772,"EPHEMERIS_TYPE":0,"CLASSIFICATION_TYPE":"U","NORAD_CAT_ID":54127,"ELEMENT_SET_NO":999,"REV_AT_EPOCH":15395,"BSTAR":0.00010933,"MEAN_MOTION_DOT":5.7e-7,"MEAN_MOTION_DDOT":0},{"OBJECT_NAME":"ONEWEB-0510","OBJECT_ID":"2022-138R","EPOCH":"2025-12-26T06:06:28.841472","MEAN_MOTION":13.20770236,"ECCENTRICITY":0.00016957,"INCLINATION":87.9217,"RA_OF_ASC_NODE":308.9261,"ARG_OF_PERICENTER":96.0126,"MEAN_ANOMALY":264.1201,"EPHEMERIS_TYPE":0,"CLASSIFICATION_TYPE":"U","NORAD_CAT_ID":54128,"ELEMENT_SET_NO":999,"REV_AT_EPOCH":15645,"BSTAR":0.00053560253,"MEAN_MOTION_DOT":2.31e-6,"MEAN_MOTION_DDOT":0},{"OBJECT_NAME":"ONEWEB-0511","OBJECT_ID":"2022-138S","EPOCH":"2025-12-26T05:26:09.680352","MEAN_MOTION":13.19725366,"ECCENTRICITY":0.00020802,"INCLINATION":87.922,"RA_OF_ASC_NODE":339.368,"ARG_OF_PERICENTER":88.2608,"MEAN_ANOMALY":271.8763,"EPHEMERIS_TYPE":0,"CLASSIFICATION_TYPE":"U","NORAD_CAT_ID":54129,"ELEMENT_SET_NO":999,"REV_AT_EPOCH":15402,"BSTAR":0.0001307157,"MEAN_MOTION_DOT":6.5e-7,"MEAN_MOTION_DDOT":0},{"OBJECT_NAME":"ONEWEB-0512","OBJECT_ID":"2022-138T","EPOCH":"2025-12-25T21:58:04.270080","MEAN_MOTION":13.19725737,"ECCENTRICITY":0.0002081,"INCLINATION":87.921,"RA_OF_ASC_NODE":339.4524,"ARG_OF_PERICENTER":77.8493,"MEAN_ANOMALY":282.2873,"EPHEMERIS_TYPE":0,"CLASSIFICATION_TYPE":"U","NORAD_CAT_ID":54130,"ELEMENT_SET_NO":999,"REV_AT_EPOCH":15395,"BSTAR":0.00021458,"MEAN_MOTION_DOT":9.9e-7,"MEAN_MOTION_DDOT":0},{"OBJECT_NAME":"ONEWEB-0513","OBJECT_ID":"2022-138U","EPOCH":"2025-12-25T21:58:40.380096","MEAN_MOTION":13.2026055,"ECCENTRICITY":0.0002649,"INCLINATION":87.9221,"RA_OF_ASC_NODE":339.4124,"ARG_OF_PERICENTER":77.3649,"MEAN_ANOMALY":282.778,"EPHEMERIS_TYPE":0,"CLASSIFICATION_TYPE":"U","NORAD_CAT_ID":54131,"ELEMENT_SET_NO":999,"REV_AT_EPOCH":15385,"BSTAR":0.00012469,"MEAN_MOTION_DOT":6.3e-7,"MEAN_MOTION_DDOT":0},{"OBJECT_NAME":"ONEWEB-0514","OBJECT_ID":"2022-138V","EPOCH":"2025-12-25T22:20:49.458336","MEAN_MOTION":13.19724601,"ECCENTRICITY":0.0001787,"INCLINATION":87.9214,"RA_OF_ASC_NODE":339.4351,"ARG_OF_PERICENTER":88.9128,"MEAN_ANOMALY":271.2209,"EPHEMERIS_TYPE":0,"CLASSIFICATION_TYPE":"U","NORAD_CAT_ID":54132,"ELEMENT_SET_NO":999,"REV_AT_EPOCH":15397,"BSTAR":-0.00010936,"MEAN_MOTION_DOT":-3.1e-7,"MEAN_MOTION_DDOT":0},{"OBJECT_NAME":"ONEWEB-0515","OBJECT_ID":"2022-138W","EPOCH":"2025-12-26T05:48:18.063936","MEAN_MOTION":13.20771416,"ECCENTRICITY":9.964e-5,"INCLINATION":87.9226,"RA_OF_ASC_NODE":308.9156,"ARG_OF_PERICENTER":93.1979,"MEAN_ANOMALY":266.9268,"EPHEMERIS_TYPE":0,"CLASSIFICATION_TYPE":"U","NORAD_CAT_ID":54133,"ELEMENT_SET_NO":999,"REV_AT_EPOCH":15647,"BSTAR":-1.6984638e-5,"MEAN_MOTION_DOT":6.0e-8,"MEAN_MOTION_DDOT":0},{"OBJECT_NAME":"ONEWEB-0516","OBJECT_ID":"2022-138X","EPOCH":"2025-12-26T05:01:07.669920","MEAN_MOTION":13.19726526,"ECCENTRICITY":0.00017956,"INCLINATION":87.9202,"RA_OF_ASC_NODE":339.3984,"ARG_OF_PERICENTER":80.0307,"MEAN_ANOMALY":280.1028,"EPHEMERIS_TYPE":0,"CLASSIFICATION_TYPE":"U","NORAD_CAT_ID":54134,"ELEMENT_SET_NO":999,"REV_AT_EPOCH":15401,"BSTAR":0.00050580053,"MEAN_MOTION_DOT":2.15e-6,"MEAN_MOTION_DDOT":0},{"OBJECT_NAME":"ONEWEB-0517","OBJECT_ID":"2022-138Y","EPOCH":"2025-12-25T21:14:51.496800","MEAN_MOTION":13.1972529,"ECCENTRICITY":0.0002055,"INCLINATION":87.922,"RA_OF_ASC_NODE":339.4448,"ARG_OF_PERICENTER":90.538,"MEAN_ANOMALY":269.5988,"EPHEMERIS_TYPE":0,"CLASSIFICATION_TYPE":"U","NORAD_CAT_ID":54135,"ELEMENT_SET_NO":999,"REV_AT_EPOCH":15397,"BSTAR":0.0002037,"MEAN_MOTION_DOT":9.4e-7,"MEAN_MOTION_DDOT":0},{"OBJECT_NAME":"ONEWEB-0518","OBJECT_ID":"2022-138Z","EPOCH":"2025-12-26T04:58:51.806784","MEAN_MOTION":13.19725814,"ECCENTRICITY":0.00019361,"INCLINATION":87.9202,"RA_OF_ASC_NODE":339.4002,"ARG_OF_PERICENTER":79.4084,"MEAN_ANOMALY":280.7267,"EPHEMERIS_TYPE":0,"CLASSIFICATION_TYPE":"U","NORAD_CAT_ID":54136,"ELEMENT_SET_NO":999,"REV_AT_EPOCH":15401,"BSTAR":0.00040592247,"MEAN_MOTION_DOT":1.75e-6,"MEAN_MOTION_DDOT":0},{"OBJECT_NAME":"ONEWEB-0519","OBJECT_ID":"2022-138AA","EPOCH":"2025-12-25T22:18:32.463360","MEAN_MOTION":13.19727534,"ECCENTRICITY":0.0002016,"INCLINATION":87.9216,"RA_OF_ASC_NODE":339.4264,"ARG_OF_PERICENTER":88.1917,"MEAN_ANOMALY":271.9446,"EPHEMERIS_TYPE":0,"CLASSIFICATION_TYPE":"U","NORAD_CAT_ID":54137,"ELEMENT_SET_NO":999,"REV_AT_EPOCH":15398,"BSTAR":0.00020921,"MEAN_MOTION_DOT":9.7e-7,"MEAN_MOTION_DDOT":0},{"OBJECT_NAME":"ONEWEB-0520","OBJECT_ID":"2022-138AB","EPOCH":"2025-12-25T21:19:24.502656","MEAN_MOTION":13.19726091,"ECCENTRICITY":0.0001912,"INCLINATION":87.9219,"RA_OF_ASC_NODE":339.4395,"ARG_OF_PERICENTER":76.7132,"MEAN_ANOMALY":283.4214,"EPHEMERIS_TYPE":0,"CLASSIFICATION_TYPE":"U","NORAD_CAT_ID":54138,"ELEMENT_SET_NO":999,"REV_AT_EPOCH":15396,"BSTAR":0.0002407,"MEAN_MOTION_DOT":1.09e-6,"MEAN_MOTION_DDOT":0},{"OBJECT_NAME":"ONEWEB-0521","OBJECT_ID":"2022-138AC","EPOCH":"2025-12-26T05:23:52.795968","MEAN_MOTION":13.19725745,"ECCENTRICITY":0.00019394,"INCLINATION":87.9215,"RA_OF_ASC_NODE":339.3569,"ARG_OF_PERICENTER":90.4818,"MEAN_ANOMALY":269.6537,"EPHEMERIS_TYPE":0,"CLASSIFICATION_TYPE":"U","NORAD_CAT_ID":54139,"ELEMENT_SET_NO":999,"REV_AT_EPOCH":15395,"BSTAR":0.00015031079,"MEAN_MOTION_DOT":7.3e-7,"MEAN_MOTION_DDOT":0},{"OBJECT_NAME":"ONEWEB-0522","OBJECT_ID":"2022-138AD","EPOCH":"2025-12-25T23:26:47.186592","MEAN_MOTION":13.19724734,"ECCENTRICITY":0.0001858,"INCLINATION":87.9205,"RA_OF_ASC_NODE":339.4098,"ARG_OF_PERICENTER":84.0111,"MEAN_ANOMALY":276.1233,"EPHEMERIS_TYPE":0,"CLASSIFICATION_TYPE":"U","NORAD_CAT_ID":54140,"ELEMENT_SET_NO":999,"REV_AT_EPOCH":15396,"BSTAR":0.00010237,"MEAN_MOTION_DOT":5.4e-7,"MEAN_MOTION_DDOT":0},{"OBJECT_NAME":"ONEWEB-0523","OBJECT_ID":"2022-138AE","EPOCH":"2025-12-26T05:30:06.506208","MEAN_MOTION":13.20770341,"ECCENTRICITY":0.00015517,"INCLINATION":87.9215,"RA_OF_ASC_NODE":308.9348,"ARG_OF_PERICENTER":106.441,"MEAN_ANOMALY":253.6894,"EPHEMERIS_TYPE":0,"CLASSIFICATION_TYPE":"U","NORAD_CAT_ID":54141,"ELEMENT_SET_NO":999,"REV_AT_EPOCH":15647,"BSTAR":-5.383349e-6,"MEAN_MOTION_DOT":1.1e-7,"MEAN_MOTION_DDOT":0},{"OBJECT_NAME":"ONEWEB-0524","OBJECT_ID":"2022-138AF","EPOCH":"2025-12-25T21:57:50.620608","MEAN_MOTION":13.20771525,"ECCENTRICITY":8.64e-5,"INCLINATION":87.9213,"RA_OF_ASC_NODE":308.9992,"ARG_OF_PERICENTER":73.5428,"MEAN_ANOMALY":286.5801,"EPHEMERIS_TYPE":0,"CLASSIFICATION_TYPE":"U","NORAD_CAT_ID":54142,"ELEMENT_SET_NO":999,"REV_AT_EPOCH":15643,"BSTAR":-6.1589e-5,"MEAN_MOTION_DOT":-1.2e-7,"MEAN_MOTION_DDOT":0},{"OBJECT_NAME":"ONEWEB-0525","OBJECT_ID":"2022-138AG","EPOCH":"2025-12-26T05:21:36.309024","MEAN_MOTION":13.19725973,"ECCENTRICITY":0.00019615,"INCLINATION":87.9215,"RA_OF_ASC_NODE":339.3782,"ARG_OF_PERICENTER":77.0111,"MEAN_ANOMALY":283.124,"EPHEMERIS_TYPE":0,"CLASSIFICATION_TYPE":"U","NORAD_CAT_ID":54143,"ELEMENT_SET_NO":999,"REV_AT_EPOCH":15401,"BSTAR":4.6064462e-5,"MEAN_MOTION_DOT":3.1e-7,"MEAN_MOTION_DDOT":0}]
